FLOCK 1C-3              
1 40041U 14033AH  18001.70938439  .00000393  00000-0  47802-4 0  9993
2 40041  97.9231 279.2628 0013554   4.7644 355.3726 14.88975073192039
POLYITAN-1              
1 40042U 14033AJ  18001.80905331  .00000420  00000-0  51492-4 0  9991
2 40042  97.9165 277.5732 0015000   6.2895 353.8507 14.88270903191967
TIGRISAT                
1 40043U 14033AK  18001.73238736  .00000206  00000-0  37975-4 0  9994
2 40043  97.8311 244.8797 0060615  16.4023 343.9129 14.74079821190089
LEMUR-1                 
1 40044U 14033AL  18001.60132447  .00000205  00000-0  38087-4 0  9997
2 40044  97.8308 244.4383 0059793  18.1195 342.2126 14.73907237189646
AEROCUBE 6A             
1 40045U 14033AM  18001.91266966  .00000444  00000-0  71781-4 0  9999
2 40045  97.8455 246.7857 0058692  10.5904 349.6526 14.75028579189776
AEROCUBE 6B             
1 40046U 14033AN  18002.18418230  .00000430  00000-0  69753-4 0  9994
2 40046  97.8437 246.9552 0057704   9.3208 350.9058 14.75019717190194
UKUBE-1                 
1 40074U 14037F   18002.05277671  .00000304  00000-0  43905-4 0  9998
2 40074  98.3656 131.1774 0005702 122.7421 237.4335 14.83690522188667
BRITE-PL 2              
1 40119U 14049B   18002.23341721  .00000169  00000-0  26707-4 0  9999
2 40119  97.9274  92.0017 0018130 155.9321 204.2744 14.84236422182687
FIREBIRD 4              
1 40378U 15003C   18002.20945926  .00001904  00000-0  82056-4 0  9998
2 40378  99.1068 230.9876 0134225  62.3854 299.0928 15.16550242161162
GRIFEX                  
1 40379U 15003D   18002.20130448  .00001396  00000-0  65228-4 0  9991
2 40379  99.1103 227.8980 0140771  72.5568 289.0991 15.13834783160982
EXOCUBE                 
1 40380U 15003E   18002.19527438  .00000939  00000-0  47166-4 0  9993
2 40380  99.1152 226.1858 0144932  78.1712 283.5727 15.12144710160866
DEORBITSAIL             
1 40719U 15032E   18002.20358388  .00000451  00000-0  72342-4 0  9992
2 40719  97.9617 258.2522 0015454 220.0295 139.9777 14.76293700133680
TIANWANG 1C (TW-1C)     
1 40926U 15051B   18002.16404868  .00007086  00000-0  14455-3 0  9994
2 40926  97.2068  45.3878 0011132 154.9731 250.0620 15.46451048127630
TIANWANG 1B (TW-1B)     
1 40927U 15051C   18002.19073817  .00007257  00000-0  15399-3 0  9992
2 40927  97.2154  45.3356 0010959 167.1302 265.2921 15.45285364127563
TIANWANG 1A (TW-1A)     
1 40928U 15051D   18002.12412352  .00003110  00000-0  86001-4 0  9990
2 40928  97.2059  39.3144 0011417 193.4500 244.5628 15.37712100127252
LEMUR-2-JOEL            
1 40932U 15052C   17364.31025959 -.00125049  00000-0 -17455-1 0  9992
2 40932   6.0099 267.3132 0013997 159.1516 200.9589 14.77605176122063
LEMUR-2-CHRIS           
1 40933U 15052D   17364.15833924  .00001302  00000-0  89053-4 0  9993
2 40933   6.0062 267.0053 0013398 161.6638 198.4520 14.77761956122055
LEMUR-2-JEROEN          
1 40934U 15052E   17364.21598286  .00084130  00000-0  11286-1 0  9990
2 40934   6.0035 273.5584 0011255 143.0642 217.0699 14.77459283121967
LEMUR-2-PETER           
1 40935U 15052F   18002.17016813  .00000997  00000-0  49609-4 0  9999
2 40935   6.0006 254.1031 0010391 187.6250 172.0139 14.76881418122404
EXACTVIEW 9             
1 40936U 15052G   18002.15136574  .00000905  00000-0  37869-4 0  9999
2 40936   5.9977 257.6025 0009902 172.7698  74.7181 14.76338288122382
ATHENOXAT 1             
1 41168U 15077C   18001.64847655  .00002162  00000-0  82847-4 0  9999
2 41168  14.9827 158.8145 0011907 248.7033 201.8865 15.12348028113122
GALASSIA                
1 41170U 15077E   18001.55718674  .00001965  00000-0  70729-4 0  9996
2 41170  14.9879 154.7886 0013442 267.3641  92.5141 15.12766964113155
VELOX 2                 
1 41171U 15077F   18001.57125193  .00001559  00000-0  52955-4 0  9997
2 41171  14.9902 171.8440 0009123 215.7865 144.1844 15.10374868113009
AGGIESAT 4              
1 41313U 98067HP  18002.13815826  .00094909  14691-4  25771-3 0  9998
2 41313  51.6341  49.8108 0001306  11.2768 348.8268 15.94162326110414
HORYU-IV                
1 41340U 16012D   18001.92780963  .00000526  00000-0  33620-4 0  9997
2 41340  31.0055 284.7956 0014305 244.3422 115.5736 15.00850488102890
OUFTI-1                 
1 41458U 16025C   18002.15446286  .00002119  00000-0  11516-3 0  9993
2 41458  98.1595  55.9855 0171083 344.5173  15.0875 15.04116072 92470
E-ST@R-II               
1 41459U 16025D   18002.20057666  .00001720  00000-0  94847-4 0  9996
2 41459  98.1629  55.9365 0171703 345.1449  14.4776 15.03892679 92473
AAUSAT 4                
1 41460U 16025E   18002.05967149  .00002239  00000-0  12120-3 0  9996
2 41460  98.1553  56.0583 0163418 342.7734  16.7986 15.05119570 92493
DIWATA-1                
1 41463U 98067HT  18002.08420135  .00008696  00000-0  86012-4 0  9992
2 41463  51.6404  98.5714 0001038 163.5711 257.1017 15.66770368 95938
FLOCK 2E'-1             
1 41479U 98067HZ  18001.62036871  .00057774  00000-0  25351-3 0  9997
2 41479  51.6329  75.7334 0001798 320.7429  39.3444 15.84030610 93135
FLOCK 2E'-3             
1 41480U 98067JA  18002.22584136  .00045635  00000-0  21545-3 0  9992
2 41480  51.6261  72.9979 0001575 315.5951  44.4925 15.82575318 93218
FLOCK 2E-1              
1 41483U 98067JD  18001.74741520  .00036103  00000-0  20763-3 0  9994
2 41483  51.6355  79.7277 0000681 335.3124  24.7844 15.78366003 92944
FLOCK 2E-2              
1 41484U 98067JE  18002.21192023  .00260192  38116-4  60613-3 0  9994
2 41484  51.6288  69.2067 0006428  20.1583 339.9678 15.96535804 93128
FLOCK 2E-3              
1 41486U 98067JG  18001.77381790  .00039567  00000-0  20506-3 0  9991
2 41486  51.6309  79.8413 0001199   1.9922 358.1084 15.80623000 92964
FLOCK 2E-4              
1 41487U 98067JH  18001.68188080  .00110630  00000-0  51114-3 0  9999
2 41487  51.6304  79.2167 0003173  31.9768 328.1426 15.82676467 92969
FLOCK 2E-6              
1 41563U 98067JM  18001.66738270  .00172353  00000-0  58770-3 0  9999
2 41563  51.6302  81.3467 0004668 334.1955  25.8816 15.88752428 91001
FLOCK 2E-5              
1 41564U 98067JN  18001.76058487  .00023529  00000-0  15802-3 0  9995
2 41564  51.6318  85.0502 0001722 269.4505  90.6297 15.75085341 90954
FLOCK 2E-7              
1 41565U 98067JP  18002.01332173  .00045086  00000-0  20246-3 0  9992
2 41565  51.6274  72.2995 0001200 214.4608 145.6317 15.83648288 91044
FLOCK 2E'-5             
1 41567U 98067JR  18001.69768026  .00022915  00000-0  16365-3 0  9990
2 41567  51.6350  88.4330 0003211 180.2951 179.8046 15.73669276 90774
FLOCK 2E'-6             
1 41568U 98067JS  18001.64563881  .00040336  00000-0  23176-3 0  9993
2 41568  51.6290  81.9509 0001935 204.4449 155.6460 15.78331661 90889
FLOCK 2E'-8             
1 41569U 98067JT  18001.66663297  .00050739  00000-0  21608-3 0  9994
2 41569  51.6311  73.0125 0000782 343.4811  16.6167 15.84713893 90884
FLOCK 2E-9              
1 41571U 98067JV  17358.79358663  .07570510  12393-4  99252-3 0  9996
2 41571  51.6107 107.3098 0009920 356.3054   4.2290 16.34648771 89702
FLOCK 2E-10             
1 41572U 98067JW  18001.67484899  .00119929  00000-0  54821-3 0  9998
2 41572  51.6337  76.1481 0000815 215.6191 144.4758 15.82875600 90826
FLOCK 2E-12             
1 41573U 98067JX  18001.67272530  .00053793  00000-0  22002-3 0  9998
2 41573  51.6302  73.0519 0001139 248.9853 111.1029 15.85531530 90861
FLOCK 2E-11             
1 41574U 98067JY  18001.99199326  .00059166  00000-0  24904-3 0  9998
2 41574  51.6240  70.5623 0001856 242.9828 117.0986 15.84893893 90929
FLOCK 2E'-9             
1 41575U 98067JZ  18001.64611489  .00091184  00000-0  29288-3 0  9996
2 41575  51.6272  68.2062 0002501 291.5502  68.5237 15.90212349 90919
FLOCK 2E'-10            
1 41576U 98067KA  18002.19734769  .00074093  00000-0  26694-3 0  9993
2 41576  51.6298  69.0729 0002179 271.7732  88.3023 15.88001538 90852
FLOCK 2E'-11            
1 41577U 98067KB  18002.20109161  .00049351  00000-0  22288-3 0  9992
2 41577  51.6333  72.1759 0001230 212.0151 148.0778 15.83487879 90639
FLOCK 2E'-12            
1 41578U 98067KC  18001.60176086  .00113189  15943-4  34438-3 0  9993
2 41578  51.6231  69.4048 0001348 324.9508  35.1410 15.91887964 90611
FLOCK 2P-6              
1 41606U 16040H   18001.86536920  .00002860  00000-0  12175-3 0  9992
2 41606  97.4363  67.9237 0012162  98.3999 261.8617 15.23745640 84947
FLOCK 2P-11             
1 41608U 16040K   18001.87214393  .00002659  00000-0  11375-3 0  9999
2 41608  97.4360  67.8865 0012184  98.0447 262.2173 15.23645863 84882
FLOCK 2P-2              
1 41609U 16040L   18002.14823830  .00002703  00000-0  11514-3 0  9998
2 41609  97.4362  68.1639 0012089  97.0678 263.1934 15.23773878 84903
FLOCK 2P-9              
1 41610U 16040M   18001.83201436  .00001259  00000-0  55250-4 0  9998
2 41610  97.4358  67.8018 0012351  98.0761 262.1878 15.23752981 84732
FLOCK 2P-4              
1 41611U 16040N   18001.86130135  .00003999  00000-0  16908-3 0  9998
2 41611  97.4388  68.0984 0012373 106.0396 254.2205 15.23735291 84909
FLOCK 2P-10             
1 41612U 16040P   18001.83772843  .00002014  00000-0  86617-4 0  9996
2 41612  97.4391  68.1645 0012195 105.9197 254.3384 15.23745838 84905
FLOCK 2P-8              
1 41613U 16040Q   18001.72425855  .00004328  00000-0  18280-3 0  9993
2 41613  97.4390  67.9817 0012390 105.7028 254.5577 15.23727030 84888
FLOCK 2P-12             
1 41614U 16040R   18002.14421970  .00001737  00000-0  75149-4 0  9994
2 41614  97.4397  68.5625 0012067 104.7464 255.5111 15.23742019 84951
FLOCK 2P-7              
1 41615U 16040S   18002.11234255  .00000929  00000-0  41733-4 0  9994
2 41615  97.4384  68.3604 0012402 105.4791 254.7817 15.23600941 84947
FLOCK 2P-5              
1 41616U 16040T   18002.15524420  .00002356  00000-0  10088-3 0  9999
2 41616  97.4398  68.5475 0012035 104.3044 255.9530 15.23730494 84933
